[{"OBJECT_NAME":"NETSAT-1","OBJECT_ID":"2020-068W","EPOCH":"2026-03-09T22:42:38.711232","MEAN_MOTION":15.32042482,"ECCENTRICITY":0.00057337,"INCLINATION":97.8751,"RA_OF_ASC_NODE":63.2583,"ARG_OF_PERICENTER":18.5877,"MEAN_ANOMALY":341.5572,"EPHEMERIS_TYPE":0,"CLASSIFICATION_TYPE":"U","NORAD_CAT_ID":46506,"ELEMENT_SET_NO":999,"REV_AT_EPOCH":30009,"BSTAR":0.00059222329,"MEAN_MOTION_DOT":0.00018269,"MEAN_MOTION_DDOT":0},{"OBJECT_NAME":"STARLINK-32041","OBJECT_ID":"2024-124V","EPOCH":"2026-03-09T22:32:19.884192","MEAN_MOTION":15.3013352,"ECCENTRICITY":0.00019628,"INCLINATION":53.1606,"RA_OF_ASC_NODE":321.3546,"ARG_OF_PERICENTER":100.2545,"MEAN_ANOMALY":259.8677,"EPHEMERIS_TYPE":0,"CLASSIFICATION_TYPE":"U","NORAD_CAT_ID":60202,"ELEMENT_SET_NO":999,"REV_AT_EPOCH":9553,"BSTAR":-0.00013205099,"MEAN_MOTION_DOT":-4.26e-5,"MEAN_MOTION_DDOT":0}]
